format  = 'OEF2.0'       ! file format
rectype = 'ML'           ! record type (1L/ML)
refsys  = ECLM J2000     ! default reference system
END_OF_HEADER
17188
! Cartesian position and velocity vectors
CAR   9.48767627203887E-01  2.10521384510352E+00  5.28557817802161E-01 -9.18112524769102E-03 -2.20939185586013E-03 -5.13974163779496E-03
MJD     58596.532631022 TDT
MAG  15.832  0.150
! Non-grav parameters: model used, actual number in use, dimension
LSP   0  0    6
! RMS    1.67159E-03   2.47043E-03   4.95381E-04   1.97058E-05   8.18449E-06   5.61402E-06
! EIG   2.15654E-07   2.16901E-07   1.67056E-06   2.50325E-06   4.49386E-06   3.02376E-03
! WEA   0.55282   0.81701   0.16383  -0.00649   0.00258  -0.00185
COV   2.794203175891595E-06  4.129532248109654E-06  8.280611204289849E-07
COV  -3.282982830405376E-08  1.304088994689879E-08 -9.343353289802793E-09
COV   6.103048705559343E-06  1.223788309260504E-06 -4.851129021978416E-08
COV   1.928500847680626E-08 -1.380618830808648E-08  2.454024368254681E-07
COV  -9.729073169881834E-09  3.864747449221313E-09 -2.768917102414196E-09
COV   3.883200637042898E-10 -1.492875921838951E-10  1.105395120692218E-10
COV   6.698586790973863E-11 -4.243008510668080E-11  3.151719667891949E-11
NOR   1.115238106209912E+11 -7.103040081041397E+10 -1.436458446026185E+10
NOR   1.907300774368646E+11  1.019365561080874E+10  2.926142436366587E+10
NOR   5.271914009765184E+10 -2.105163132395565E+10  1.067113929406944E+10
NOR  -1.099831496886472E+11  1.645057525616636E+09  1.557003326014757E+11
NOR   2.927986691164508E+10  1.390154495657856E+09  9.796373296060857E+10
NOR   1.513128855697695E+13 -9.376383258855557E+12 -1.903285214613363E+12
NOR   6.941010553208545E+12 -2.804419094345772E+12  2.093338884181782E+13
!MOID  0.06493    0
!NODES  0.09386  0.64019
17188
! Keplerian elements: a, e, i, long. node, arg. peric., mean anomaly
KEP   2.2042769570209848E+00 0.633968645493460  29.2552923798064 269.8595281804978 287.2215382759062 299.3076150504484
MJD     58596.532631022 TDT
MAG  15.832  0.150
! Non-grav parameters: model used, actual number in use, dimension
LSP   0  0    6
! RMS    1.14755E-02   1.02142E-03   2.65753E-02   7.07348E-03   3.54167E-01   3.47443E-01
! EIG   4.62180E-07   1.67021E-06   1.27748E-05   3.84633E-05   4.15260E-04   1.44142E-02
! WEA   0.79610  -0.06954  -0.03214   0.00810  -0.42875   0.42008
COV   1.316872898121780E-04 -1.151902939929163E-05 -3.045265040498634E-04
COV   7.658230071985758E-05 -4.063872246813344E-03  3.979401586342262E-03
COV   1.043293761242736E-06  2.654258515385096E-05 -6.343305859105955E-06
COV   3.563461533202042E-04 -3.440192850731952E-04  7.062479977624379E-04
COV  -1.798878855277495E-04  9.396928417959621E-03 -9.213104054464290E-03
COV   5.003416531401021E-05 -2.356417522927957E-03  2.354794213884811E-03
COV   1.254342238340845E-01 -1.227060138428826E-01  1.207167279422113E-01
NOR   7.160079630515261E+09 -7.645426672626328E+10  3.979542958886238E+08
NOR   1.106689278068588E+09  8.361162459937975E+08  4.047681451983177E+08
NOR   2.815319828358380E+12  7.942790248642271E+08 -2.316682883314923E+10
NOR  -2.740578999793383E+10 -1.680146444277761E+10  5.615389270379965E+07
NOR   5.132737480881252E+07 -2.088161128401849E+06 -9.693075276417719E+06
NOR   2.519451627746561E+08  2.324455353502512E+08  1.327759112075004E+08
NOR   2.686213007243912E+08  1.626906803629386E+08  1.008178405819175E+08